MEAN_MOTION;ECCENTRICITY;INCLINATION;RA_OF_ASC_NODE;ARG_OF_PERICENTER;MEAN_ANOMALY;BSTAR;MEAN_MOTION_DOT;MEAN_MOTION_DDOT;TYPE
14.19003014;0.0013024;98.7355;86.242;278.3578;136.1392;1.9382E-5;-3.0E-8;0;Weather
14.19003097;0.0013014;98.7354;86.878;276.3086;192.591;2.2211E-5;3.0E-8;0;Weather
14.19003136;0.0013013;98.7354;87.2151;275.3078;140.3412;2.4552E-5;7.0E-8;0;Weather
14.19003196;0.0013007;98.7354;88.121;272.4462;156.0378;2.7351E-5;1.3E-7;0;Weather
14.19003195;0.0013007;98.7354;88.1883;272.2371;144.9342;2.6764E-5;1.2E-7;0;Weather
14.19003263;0.0013004;98.7354;88.7549;270.4028;201.8293;2.7166E-5;1.3E-7;0;Weather
14.19003261;0.0013004;98.7353;88.9622;269.7482;196.7837;2.6498E-5;1.1E-7;0;Weather
14.1900329;0.0013007;98.7353;89.2235;268.9129;111.1138;2.5553E-5;9.0E-8;0;Weather
14.19003356;0.0013008;98.7353;89.7355;267.3091;244.7516;2.4073E-5;6.0E-8;0;Weather
14.1900341;0.0013017;98.7353;90.7087;264.1657;249.2652;1.6259E-5;-1.0E-7;0;Weather
14.19003386;0.0013025;98.7353;91.1713;262.6988;127.0158;1.1585E-5;-2.0E-7;0;Weather
14.19003531;0.0013029;98.7353;91.8825;260.3001;213.9585;1.327E-5;-1.6E-7;0;Weather
14.19003562;0.0013032;98.7353;92.1493;259.4448;157.0592;1.3569E-5;-1.6E-7;0;Weather
14.1900366;0.0013044;98.7353;93.0551;256.5847;172.1759;1.6873E-5;-9.0E-8;0;Weather
14.19003672;0.0013046;98.7353;93.1237;256.3554;167.4201;1.7174E-5;-8.0E-8;0;Weather
14.19003717;0.0013047;98.7353;94.0955;253.4926;164.7914;1.8784E-5;-5.0E-8;0;Weather
14.19003747;0.0013054;98.7353;94.2304;253.0147;143.7409;1.924E-5;-4.0E-8;0;Weather
14.19003761;0.0013065;98.7353;94.8006;251.227;219.2841;1.7575E-5;-7.0E-8;0;Weather
14.1900382;0.0013082;98.7353;95.6354;248.6299;226.4507;1.474E-5;-1.3E-7;0;Weather
14.1900386;0.0013098;98.7352;96.1053;247.1709;142.2053;1.4666E-5;-1.3E-7;0;Weather
14.19003889;0.0013114;98.7353;96.6766;245.4222;223.128;1.2467E-5;-1.8E-7;0;Weather
14.19003857;0.0013124;98.7352;97.0835;244.1194;171.9332;8.5054E-6;-2.6E-7;0;Weather
14.19003952;0.0013137;98.7353;97.7189;242.1285;225.4055;1.4706E-5;-1.3E-7;0;Weather
14.19003927;0.001314;98.7353;97.9881;241.2749;180.8564;1.4779E-5;-1.3E-7;0;Weather
14.19003935;0.0013142;98.7353;98.0567;241.0612;176.8488;1.5082E-5;-1.2E-7;0;Weather
14.19003987;0.0013157;98.7353;98.6918;239.0413;228.214;1.9148E-5;-4.0E-8;0;Weather
14.19004004;0.0013167;98.7352;99.0298;237.9981;180.4544;2.1149E-5;0;0;Weather
14.19004014;0.0013169;98.7352;99.0983;237.7841;175.3203;2.1561E-5;1.0E-8;0;Weather
14.19004067;0.0013185;98.7352;99.6651;235.998;233.4607;2.4244E-5;7.0E-8;0;Weather
14.1900408;0.0013198;98.7352;100.003;234.9568;184.7486;2.3945E-5;6.0E-8;0;Weather
14.19004152;0.0013216;98.7351;100.5767;233.1662;278.9234;2.4135E-5;7.0E-8;0;Weather
14.19004156;0.0013233;98.7351;100.9761;231.9384;188.91;2.1487E-5;1.0E-8;0;Weather
14.19004233;0.0013259;98.735;101.6108;229.9563;239.0208;1.9672E-5;-3.0E-8;0;Weather
14.19004286;0.0013283;98.735;102.0179;228.6911;189.1057;2.031E-5;-1.0E-8;0;Weather
14.19004343;0.0013306;98.7349;102.922;225.9185;195.8121;1.8144E-5;-6.0E-8;0;Weather
14.19004357;0.0013309;98.7349;102.9902;225.7095;189.2516;1.8744E-5;-5.0E-8;0;Weather
14.19004421;0.001333;98.7349;103.6259;223.7322;244.2508;2.0834E-5;0;0;Weather
14.19004421;0.0013345;98.7349;103.964;222.6957;196.571;1.9978E-5;-2.0E-8;0;Weather
14.19004528;0.0013385;98.7348;104.9367;219.6884;198.7207;2.3841E-5;6.0E-8;0;Weather
14.19004528;0.0013391;98.7348;104.9989;219.4925;161.0114;2.3052E-5;4.0E-8;0;Weather
14.19004628;0.001343;98.7348;105.9098;216.7141;202.6077;2.2049E-5;2.0E-8;0;Weather
14.19004708;0.001347;98.7348;106.5448;214.7535;253.9522;1.8692E-5;-5.0E-8;0;Weather
14.19004708;0.0013474;98.7348;106.6141;214.5428;253.4953;1.8425E-5;-5.0E-8;0;Weather
14.19004759;0.0013507;98.7348;106.9521;213.5036;205.4311;1.7863E-5;-6.0E-8;0;Weather
14.19004786;0.0013538;98.7349;107.5871;211.5747;256.4204;1.2368E-5;-1.8E-7;0;Weather
14.19004792;0.0013551;98.7349;107.8561;210.7637;210.6941;1.1675E-5;-1.9E-7;0;Weather
14.19004803;0.0013555;98.7349;107.9244;210.5599;204.9477;1.158E-5;-2.0E-7;0;Weather
14.1900485;0.0013596;98.7349;108.8979;207.602;210.7533;1.1351E-5;-2.0E-7;0;Weather
14.19004871;0.0013607;98.7349;109.1205;206.9216;284.5405;1.3026E-5;-1.7E-7;0;Weather
14.19004941;0.0013656;98.7349;109.8707;204.6443;213.1054;1.688E-5;-9.0E-8;0;Weather
14.19005015;0.0013685;98.7349;110.4378;202.9179;272.6063;2.0854E-5;0;0;Weather
14.19005035;0.0013706;98.7348;110.844;201.7068;218.0356;2.1599E-5;1.0E-8;0;Weather
14.19005084;0.0013762;98.7348;111.7458;199.009;212.4403;1.7868E-5;-6.0E-8;0;Weather
14.1900509;0.0013765;98.7348;111.8169;198.8021;221.1548;1.7379E-5;-7.0E-8;0;Weather
14.19005176;0.0013822;98.7347;112.859;195.7014;222.6302;1.5607E-5;-1.1E-7;0;Weather
14.19005181;0.0013821;98.7347;112.9194;195.5223;175.7354;1.5651E-5;-1.1E-7;0;Weather
14.19005248;0.0013868;98.7346;113.8314;192.8004;222.6985;1.7344E-5;-8.0E-8;0;Weather
14.19005342;0.0013901;98.7346;114.398;191.0966;279.74;2.2724E-5;4.0E-8;0;Weather
14.19005359;0.0013929;98.7346;114.8049;189.8893;228.4489;2.4272E-5;7.0E-8;0;Weather
14.19005408;0.0013963;98.7345;115.5097;187.791;281.9397;2.676E-5;1.2E-7;0;Weather
14.19005451;0.0013985;98.7345;115.779;187.0069;237.9215;2.8532E-5;1.6E-7;0;Weather
14.19005586;0.0014082;98.7344;116.7509;184.1702;235.0635;2.8292E-5;1.5E-7;0;Weather
14.19005617;0.0014083;98.7344;116.8915;183.767;243.9451;2.8385E-5;1.6E-7;0;Weather
14.1900571;0.0014131;98.7344;117.7875;181.1629;208.3766;2.4045E-5;7.0E-8;0;Weather
14.19005796;0.00142;98.7344;118.7656;178.3215;237.3801;1.9301E-5;-3.0E-8;0;Weather
14.19005872;0.0014235;98.7343;119.4716;176.2811;296.3052;1.9241E-5;-4.0E-8;0;Weather
14.19005928;0.0014288;98.7342;120.6448;172.8877;257.6565;1.9264E-5;-3.0E-8;0;Weather
14.19005923;0.0014285;98.7342;120.7123;172.6927;247.4652;1.8481E-5;-5.0E-8;0;Weather
14.19006024;0.0014391;98.7341;121.685;169.9012;249.4003;1.8598E-5;-5.0E-8;0;Weather
14.19006033;0.0014368;98.7341;121.8259;169.4921;259.7583;1.7989E-5;-6.0E-8;0;Weather
14.19006081;0.0014408;98.7341;122.6585;167.1167;255.6948;1.3897E-5;-1.5E-7;0;Weather
14.19006137;0.0014415;98.7341;123.2319;165.4497;347.6047;1.2056E-5;-1.8E-7;0;Weather
14.19006156;0.0014438;98.734;123.6997;164.1352;252.7157;1.0649E-5;-2.1E-7;0;Weather
14.19006194;0.0014457;98.734;124.2659;162.5059;307.5425;1.0114E-5;-2.3E-7;0;Weather
14.19006192;0.0014464;98.734;124.3349;162.3099;305.5432;1.0201E-5;-2.2E-7;0;Weather
14.1900621;0.0014475;98.734;124.6723;161.3538;254.3969;1.1061E-5;-2.1E-7;0;Weather
14.19006238;0.0014504;98.734;125.1714;159.928;321.6091;1.285E-5;-1.7E-7;0;Weather
14.19006241;0.0014526;98.7339;125.6415;158.5908;237.9703;1.4614E-5;-1.3E-7;0;Weather
14.19006263;0.0014541;98.7339;125.7142;158.4086;254.9915;1.5432E-5;-1.1E-7;0;Weather
14.19006314;0.0014569;98.7339;126.2808;156.7756;311.9145;1.9342E-5;-3.0E-8;0;Weather
14.19006331;0.0014587;98.7339;126.6185;155.8291;262.4779;2.0952E-5;0;0;Weather
14.19006367;0.0014621;98.7339;126.7595;155.4581;272.7227;2.2066E-5;2.0E-8;0;Weather
14.19006407;0.0014649;98.7339;127.5918;153.1053;266.9035;2.1034E-5;0;0;Weather
14.19006513;0.0014688;98.7338;128.1583;151.5669;323.6377;2.1574E-5;1.0E-8;0;Weather
14.19006537;0.0014727;98.7338;128.5647;150.482;270.0165;2.0319E-5;-1.0E-8;0;Weather
14.19006607;0.0014772;98.7338;129.1996;148.7461;321.0789;1.8661E-5;-5.0E-8;0;Weather
14.19006625;0.0014772;98.7337;129.606;147.5591;267.7631;1.9012E-5;-4.0E-8;0;Weather
14.19006659;0.0014796;98.7337;130.3118;145.536;326.0793;1.9715E-5;-2.0E-8;0;Weather
14.19006677;0.0014812;98.7336;130.5791;144.7982;271.71;2.0262E-5;-1.0E-8;0;Weather
14.19006748;0.0014854;98.7336;131.4851;142.2259;287.9638;2.4415E-5;7.0E-8;0;Weather
14.19006762;0.0014854;98.7336;131.5524;142.0384;276.9028;2.48E-5;8.0E-8;0;Weather
14.19006867;0.0014898;98.7335;132.5253;139.3469;279.9037;2.5994E-5;1.1E-7;0;Weather
14.19006889;0.0014905;98.7335;132.6662;138.9617;290.0528;2.574E-5;1.0E-7;0;Weather
14.19006947;0.0014929;98.7335;133.2301;137.4022;333.1099;2.3686E-5;6.0E-8;0;Weather
14.19006975;0.0014937;98.7334;133.4984;136.6662;283.7783;2.2854E-5;4.0E-8;0;Weather
14.19007035;0.0014958;98.7334;134.1334;134.9108;335.6499;1.8138E-5;-6.0E-8;0;Weather
14.19007043;0.0014961;98.7334;134.2026;134.7207;334.0725;1.8433E-5;-5.0E-8;0;Weather
14.19007077;0.0014976;98.7334;134.5397;133.8032;281.5999;1.7491E-5;-7.0E-8;0;Weather
14.19007071;0.001498;98.7334;134.6008;133.6351;238.1443;1.6352E-5;-9.0E-8;0;Weather
14.19007115;0.0015003;98.7334;135.1753;132.03;336.3575;1.4511E-5;-1.3E-7;0;Weather
14.19007143;0.0015005;98.7334;135.5126;131.0782;284.7096;1.498E-5;-1.2E-7;0;Weather
14.19007163;0.0015015;98.7334;135.6497;130.7157;275.3898;1.5459E-5;-1.1E-7;0;Weather
14.19007215;0.0015061;98.7333;136.4857;128.4638;288.7822;1.6683E-5;-9.0E-8;0;Weather
14.19007268;0.0015073;98.7333;137.052;126.8698;344.3077;1.8293E-5;-5.0E-8;0;Weather
14.19007298;0.0015083;98.7333;137.459;125.744;294.0128;1.9451E-5;-3.0E-8;0;Weather
14.19007356;0.0015102;98.7333;138.0939;123.9994;345.182;1.8822E-5;-4.0E-8;0;Weather
14.19007377;0.0015117;98.7332;138.4319;123.131;297.2858;1.7552E-5;-7.0E-8;0;Weather
14.19007471;0.0015158;98.7332;139.4049;120.5284;300.6465;1.4663E-5;-1.3E-7;0;Weather
14.19007535;0.0015182;98.7332;140.109;118.6643;349.6604;1.3318E-5;-1.6E-7;0;Weather
14.19007561;0.0015194;98.7332;140.583;117.3666;286.7176;1.3238E-5;-1.6E-7;0;Weather
14.19007642;0.0015222;98.7331;141.4194;115.0831;302.3991;1.807E-5;-6.0E-8;0;Weather
14.19007679;0.0015226;98.7331;141.6248;114.5124;287.2134;2.0784E-5;0;0;Weather
14.19007708;0.0015237;98.733;142.0554;113.3499;358.8567;2.2707E-5;4.0E-8;0;Weather
14.19007741;0.0015244;98.733;142.3923;112.4222;305.3835;2.5646E-5;1.0E-7;0;Weather
14.19007782;0.0015264;98.733;142.959;110.8996;2.8054;2.6371E-5;1.2E-7;0;Weather
14.19007784;0.0015265;98.7329;143.0273;110.721;357.048;2.6416E-5;1.2E-7;0;Weather
14.19007791;0.0015268;98.7329;143.0972;110.537;359.2433;2.7102E-5;1.3E-7;0;Weather
14.19007876;0.0015283;98.7329;144.0003;108.133;0.5191;2.466E-5;8.0E-8;0;Weather
